[{"OBJECT_NAME":"STARLINK-30099","OBJECT_ID":"2023-056U","EPOCH":"2026-03-09T22:00:01.999584","MEAN_MOTION":15.25563741,"ECCENTRICITY":0.00018348,"INCLINATION":43.0032,"RA_OF_ASC_NODE":207.2616,"ARG_OF_PERICENTER":279.7614,"MEAN_ANOMALY":238.5767,"EPHEMERIS_TYPE":0,"CLASSIFICATION_TYPE":"U","NORAD_CAT_ID":56304,"ELEMENT_SET_NO":999,"REV_AT_EPOCH":572,"BSTAR":0.027833356,"MEAN_MOTION_DOT":0.00777937,"MEAN_MOTION_DDOT":0},{"OBJECT_NAME":"FLOCK 4G-35","OBJECT_ID":"2025-009CC","EPOCH":"2026-03-09T18:16:29.173728","MEAN_MOTION":15.33603414,"ECCENTRICITY":0.00032423,"INCLINATION":97.4012,"RA_OF_ASC_NODE":151.7924,"ARG_OF_PERICENTER":307.1268,"MEAN_ANOMALY":52.9678,"EPHEMERIS_TYPE":0,"CLASSIFICATION_TYPE":"U","NORAD_CAT_ID":62683,"ELEMENT_SET_NO":999,"REV_AT_EPOCH":12140,"BSTAR":0.00099271567,"MEAN_MOTION_DOT":0.00032274,"MEAN_MOTION_DDOT":0}]
